OSCAR 3 (OSCAR III)     
1 01293U 65016F   09121.87062193 -.00000056  00000-0 -14810-5 0  5136
2 01293  70.0704 271.5144 0020196 232.7106 127.2162 14.04703237253303
OSCAR 5 (AO-5)          
1 04321U 70008B   09121.94905591 -.00000031  00000-0  10000-3 0  1553
2 04321 102.1338 132.1967 0027859  67.7715 292.6301 12.52156357794979
OSCAR 6 (AO-6)          
1 06236U 72082B   09122.88790286 -.00000027  00000-0  10000-3 0  1444
2 06236 101.3963 138.0955 0003915 343.5610  16.5335 12.53077095671739
OSCAR 7 (AO-7)          
1 07530U 74089B   09122.35969984 -.00000027  00000-0  10000-3 0  4674
2 07530 101.4307 148.7147 0011628   0.2933 359.8146 12.53575697576970
OSCAR 8 (AO-8)          
1 10703U 78026B   09122.20898349  .00000379  00000-0  29264-3 0  4801
2 10703  98.8333 169.0811 0005709 304.4881  55.5743 13.98842554589596
PHASE 3B (AO-10)        
1 14129U 83058B   09118.67414459 -.00000311  00000-0  10000-3 0  6492
2 14129  25.9279 159.5881 5993914 218.1079  78.6820  2.05873160166633
UOSAT 2 (UO-11)         
1 14781U 84021B   09122.29943307  .00000214  00000-0  35614-4 0  9504
2 14781  98.1093 166.3528 0010082 121.9973 238.2232 14.79708780351043
JAS-1 (FO-12)           
1 16909U 86061B   09121.90518113 -.00000083  00000-0  10000-3 0  5517
2 16909  50.0175 304.1730 0011615  89.8200 270.3966 12.44452637 33214
UOSAT 3 (UO-14)         
1 20437U 90005B   09121.57803636 -.00000002  00000-0  14989-4 0  9113
2 20437  98.3366  81.5971 0010578 313.2066  46.8235 14.31542604  6381
UOSAT 4 (UO-15)         
1 20438U 90005C   09122.45722782 -.00000019  00000-0  89856-5 0  4045
2 20438  98.3951  75.2973 0009795 339.0012  21.0764 14.30443320  5936
PACSAT (AO-16)          
1 20439U 90005D   09122.50166672 -.00000006  00000-0  13072-4 0  5955
2 20439  98.2760  92.9929 0010192 311.3836  48.6471 14.31822466  6610
DOVE (DO-17)            
1 20440U 90005E   09122.44224927 -.00000008  00000-0  12230-4 0  3076
2 20440  98.2504  97.7678 0010263 306.4923  53.5319 14.32125865  6743
WEBERSAT (WO-18)        
1 20441U 90005F   09122.43795171 -.00000017  00000-0  91691-5 0  8153
2 20441  98.2574  96.4051 0010850 309.7958  50.2279 14.31890325  6678
LUSAT (LO-19)           
1 20442U 90005G   09122.49625847  .00000006  00000-0  17313-4 0  5143
2 20442  98.2386 100.4264 0011050 306.3652  53.6512 14.32058515  6775
JAS-1B (FO-20)          
1 20480U 90013C   09121.71822008 -.00000042  00000-0 -13799-4 0  1294
2 20480  99.0688  51.0327 0539419 275.5613  78.4232 12.83360685900944
INFORMATOR 1 & RS-14    
1 21087U 91006A   09122.40168550  .00000019  00000-0  32753-5 0  2603
2 21087  82.9398  79.9405 0036691  53.4298 307.0229 13.75042583916129
COSMOS 2123 & RS-12/13  
1 21089U 91007A   09122.83790731  .00000004  00000-0 -12133-4 0  1417
2 21089  82.9183 300.2966 0030765  95.1168 265.3497 13.74486235914968
UOSAT 5 (UO-22)         
1 21575U 91050B   09122.38285771  .00000041  00000-0  27104-4 0  5438
2 21575  98.4417  71.9492 0007885 150.4712 209.6928 14.39672093934113
KITSAT 1 (KO-23)        
1 22077U 92052B   09122.11781935 -.00000037  00000-0  10000-3 0  7347
2 22077  66.0855  63.1366 0014216 290.3725  69.5752 12.86448263785599
ARASENE (AO-24)         
1 22654U 93031B   09121.32632283 -.00000115  00000-0  10000-3 0  2587
2 22654   5.1050 338.3398 2873348 157.9884 217.0903  1.42205360 78455
EYESAT-1 (AO-27)        
1 22825U 93061C   09122.15164354 -.00000291  00000-0 -97764-4 0  2344
2 22825  98.4338  77.0328 0009180  44.2959 315.8935 14.29262528813337
ITAMSAT (IO-26)         
1 22826U 93061D   09121.79997618 -.00000015  00000-0  10796-4 0  9587
2 22826  98.4264  77.4615 0009618  41.9382 318.2534 14.29515582813387
KITSAT 2 (KO-25)        
1 22828U 93061F   09121.91394541  .00000038  00000-0  31209-4 0  1666
2 22828  98.4190  77.4883 0010245  16.3935 343.7591 14.29816304781670
POSAT (PO-28)           
1 22829U 93061G   09122.47024949  .00000045  00000-0  33854-4 0  2051
2 22829  98.4148  79.1570 0009851  11.7157 348.4273 14.30214561813766
RADIO ROSTO (RS-15)     
1 23439U 94085A   09122.83576090 -.00000039  00000-0  10000-3 0  1987
2 23439  64.8154 338.1565 0147486  60.3881 301.1645 11.27553479591007
JAS-2 (FO-29)           
1 24278U 96046B   09122.81885246 -.00000062  00000-0 -30167-4 0   301
2 24278  98.5609   2.9423 0351404 107.9232 256.0544 13.52942872627614
UNAMSAT-2 (MO-30)       
1 24305U 96052B   09122.79456054  .00000056  00000-0  43806-4 0  1055
2 24305  82.9384  27.6126 0030928  23.5588 336.6978 13.73569570634446
TMSAT-1 (TO-31)         
1 25396U 98043C   09121.68673002  .00000160  00000-0  87664-4 0  3912
2 25396  98.3340 152.0704 0002752  33.8092 326.3277 14.23777063561680
TECHSAT 1B (GO-32)      
1 25397U 98043D   09122.02192836  .00000051  00000-0  40580-4 0  8823
2 25397  98.3292 146.8297 0001912  56.9168 303.2194 14.23158259561561
SEDSAT 1 (SO-33)        
1 25509U 98061B   09122.83182079  .00000049  00000-0 -36696-5 0  4441
2 25509  31.4366 308.9594 0354988 301.8333  54.8194 14.28250582549345
PAN SAT (PO-34)         
1 25520U 98064B   09122.54346710  .00000434  00000-0  11504-4 0  2376
2 25520  28.4601 200.5013 0005655 167.2267 192.8478 15.17330031581715
ISS (ZARYA)             
1 25544U 98067A   09122.51910537  .00008060  00000-0  63355-4 0  7814
2 25544  51.6392 181.0832 0009091 316.4012 184.7415 15.72541463598760
SUNSAT (SO-35)          
1 25636U 99008C   09121.67934144 -.00000019  00000-0  30268-5 0  2953
2 25636  96.4487 316.9633 0148701   9.7651 350.6363 14.43461114536393
UOSAT 12 (UO-36)        
1 25693U 99021A   09122.48841221 -.00000137  00000-0  43803-6 0  9020
2 25693  64.5583 256.2357 0010227 204.0918 155.9663 14.78746118541084
OPAL (OO-38)            
1 26063U 00004C   09122.09197113 -.00000026  00000-0  11150-4 0  4958
2 26063 100.2040 260.2420 0036995  31.8977 328.4428 14.35861704485332
SAUDISAT 1A (SO-41)     
1 26545U 00057A   09122.82881730 -.00000018  00000-0  17016-4 0  2414
2 26545  64.5574 257.3367 0055876 285.3408  74.1515 14.80579860464486
TIUNGSAT-1 (MO-46)      
1 26548U 00057D   09122.33403095 -.00000050  00000-0  12465-4 0  3822
2 26548  64.5564 222.6469 0051322 279.0967  80.4314 14.83357889465158
SAUDISAT 1B (SO-42)     
1 26549U 00057E   09122.01259434  .00000049  00000-0  25959-4 0  3216
2 26549  64.5575 276.2427 0059055 289.4612  70.0139 14.79436526464030
PHASE 3D (AO-40)        
1 26609U 00072B   09121.54534916 -.00000398  00000-0  10000-3 0  2237
2 26609   9.3048  21.2066 7964328 199.7969  87.3535  1.25583392 39040
PCSAT (NO-44)           
1 26931U 01043C   09122.45890710  .00000115  00000-0  77124-4 0  1586
2 26931  67.0503 182.1528 0005432 273.5511  86.4959 14.29555168396048
SAPPHIRE (NO-45)        
1 26932U 01043D   09122.21418875 -.00000029  00000-0  20933-4 0  1614
2 26932  67.0494 182.7215 0004779 244.4060 115.6531 14.29607462396053
IDEFIX & ARIANE 42P R/B 
1 27422U 02021B   09122.78259410 -.00000030  00000-0  52781-5 0   344
2 27422  98.5238 203.0800 0012288   1.5727 358.5490 14.28490286362920
RUBIN-2 & SAFIR-M       
1 27605U 02058A   09121.54585992 -.00000157  00000-0 -19278-5 0  8991
2 27605  64.5565 154.0515 0072076 216.8491 142.7650 14.72396976342072
SAUDISAT 1C (SO-50)     
1 27607U 02058C   09121.56438109 -.00000119  00000-0  37850-5 0  8748
2 27607  64.5576 166.6905 0072747 215.7125 143.9093 14.71431433341817
DTUSAT                  
1 27842U 03031C   09121.98625479  .00000019  00000-0  28860-4 0  5458
2 27842  98.7070 132.7845 0008523 258.5488 101.4727 14.20976873302783
CUTE-1 (CO-55)          
1 27844U 03031E   09122.21226624  .00000008  00000-0  23867-4 0  5692
2 27844  98.7145 132.0280 0008894 277.3177  82.6988 14.20634206302734
AAU CUBESAT             
1 27846U 03031G   09122.54918376  .00000028  00000-0  33354-4 0  4808
2 27846  98.7071 133.3335 0008498 256.6188 103.4030 14.20977062302865
CANX-1                  
1 27847U 03031H   09121.99387635  .00000011  00000-0  25257-4 0  4945
2 27847  98.7062 132.7776 0008594 259.6154 100.4076 14.20959772302732
CUBESAT XI-IV (CO-57)   
1 27848U 03031J   09121.97207449  .00000029  00000-0  34133-4 0  5154
2 27848  98.7159 130.8525 0009021 285.0100  75.0075 14.20437039302666
MOZHAYETS 4 (RS-22)     
1 27939U 03042A   09121.76930186  .00000100  00000-0  28325-4 0  7793
2 27939  97.9508 358.3131 0012522 280.1530  79.8258 14.63312177298783
ECHO (AO-51)            
1 28375U 04025K   09122.74961521  .00000005  00000-0  14330-4 0  3786
2 28375  98.0543 135.0015 0083126 263.6277  95.5433 14.40640104254413
HAMSAT (VO-52)          
1 28650U 05017B   09121.98948506 -.00000240  00000-0 -23752-4 0  2158
2 28650  97.7443 185.0902 0027238 177.8295 182.3043 14.81575968215804
UWE-1                   
1 28892U 05043C   09122.72731688  .00000175  00000-0  46060-4 0  3264
2 28892  98.0611  14.0960 0018330 127.7393 232.5489 14.59729940187215
SSETI EXPRESS (XO-53)   
1 28894U 05043E   09122.13907011  .00000048  00000-0  19527-4 0  4501
2 28894  98.0618  13.7702 0018312 131.5261 228.7525 14.59665440187134
CUBESAT XI-V (CO-58)    
1 28895U 05043F   09122.34462842  .00000143  00000-0  39350-4 0  2918
2 28895  98.0664  14.2334 0018707 128.5768 231.7100 14.59763424187043
NCUBE-2                 
1 28897U 05043H   09122.13403382  .00000110  00000-0  32423-4 0  8375
2 28897  98.0630  13.9380 0017866 129.9289 230.3502 14.59940319179304
CUTE-1.7+APD (CO-56)    
1 28941U 06005C   09122.54651300  .00031571  29979-5  12844-3 0   422
2 28941  98.1357 288.6181 0096334 303.5278  55.6824 15.79567546180033
PEHUENSAT 1             
1 29712U 07001D   09122.73562176  .00000475  00000-0  68641-4 0  4495
2 29712  97.8319 180.2222 0015466  64.6617 295.6190 14.80525050124749
DELFI-C3                
1 32789U 08021G   09122.17030118  .00000427  00000-0  60945-4 0  3552
2 32789  97.9504 186.5608 0015678 176.8313 183.3002 14.81680771 54633
PRISM                   
1 33493U 09002B   09122.75438039  .00000276  00000-0  42961-4 0  3430
2 33493  98.0520 234.7760 0020792  32.2556 327.9930 14.80656658 14748
STARS                   
1 33498U 09002G   09122.77409354  .00000146  00000-0  31644-4 0  3066
2 33498  98.0341 233.0991 0014203 107.3116 252.9648 14.71298772 14638
KKS-1                   
1 33499U 09002H   09122.81568754  .00000087  00000-0  22394-4 0  3136
2 33499  98.0355 233.0567 0011580 104.4416 255.8080 14.70677488 14635
